Code,Org Name,CodeA,CodeB,Add1,Add2,Add3,Add4,Add5,Postcode,Regdate,lat,lon,uni_code,Unitary Authority,uni_lat,uni_lon
REF,ROYAL CORNWALL HOSPITALS NHS TRUST,Y57,Q80,ROYAL CORNWALL HOSPITAL,,TRELISKE,TRURO,CORNWALL,TR1 3LJ,19920401,50.2653,-5.06268,E06000052,Cornwall,50.450218,-4.64254
RJ8,CORNWALL PARTNERSHIP NHS FOUNDATION TRUST,Y57,Q80,PORTHPEAN ROAD,,,ST AUSTELL,CORNWALL,PL26 6AD,19930401,50.3318,-4.82708648648649,E06000052,Cornwall,50.450218,-4.64254
RK9,PLYMOUTH HOSPITALS NHS TRUST,Y57,Q80,DERRIFORD HOSPITAL,DERRIFORD ROAD,,PLYMOUTH,DEVON,PL6 8DH,19940401,50.4,-4.11346666666667,E06000052,Cornwall,50.450218,-4.64254
R1G,TORBAY AND SOUTHERN DEVON HEALTH AND CARE NHS TRUST,Y57,Q80,"BAY HOUSE, UNIT 2",RIVIERA PARK,NICHOLSON ROAD,TORQUAY,DEVON,TQ2 7TD,20120401,50.4762,-3.546,E06000027,Torbay,50.470921,-3.55523
RA9,TORBAY AND SOUTH DEVON NHS FOUNDATION TRUST,Y57,Q80,HENGRAVE HOUSE,TORBAY HOSPITAL,NEWTON ROAD,TORQUAY,DEVON,TQ2 7AA,19910401,50.4762,-3.546,E06000027,Torbay,50.470921,-3.55523
R1F,ISLE OF WIGHT NHS TRUST,Y57,Q70,ST MARY'S HOSPITAL,PARKHURST ROAD,,NEWPORT,ISLE OF WIGHT,PO30 5TG,20120401,50.678,-1.32891538461538,E06000046,Isle of Wight,50.671291,-1.33366
RBD,DORSET COUNTY HOSPITAL NHS FOUNDATION TRUST,Y57,Q70,DORSET COUNTY HOSPITAL,WILLIAMS AVENUE,,DORCHESTER,DORSET,DT1 2JY,19910401,50.7167,-2.4333,E06000059,Dorset,50.79697,-2.41467
RD3,POOLE HOSPITAL NHS FOUNDATION TRUST,Y57,Q70,LONGFLEET ROAD,,,POOLE,DORSET,BH15 2JB,19920401,50.7167,-2,E06000058,"Bournemouth, Christchurch and Poole",50.74609,-1.84807
RH8,ROYAL DEVON AND EXETER NHS FOUNDATION TRUST,Y57,Q80,ROYAL DEVON & EXETER HOSPITAL,BARRACK ROAD,,EXETER,DEVON,EX2 5DW,19930401,50.7236,-3.52953333333333,E10000008,Devon,50.725578,-3.65698
RWV,DEVON PARTNERSHIP NHS TRUST,Y57,Q80,WONFORD HOUSE HOSPITAL,DRYDEN ROAD,,EXETER,DEVON,EX2 5AF,20010401,50.7236,-3.52953333333333,E10000008,Devon,50.725578,-3.65698
RYF,SOUTH WESTERN AMBULANCE SERVICE NHS FOUNDATION TRUST,Y57,Q80,WESTCOUNTRY HOUSE,"ABBEY COURT, EAGLE WAY",SOWTON INDUSTRIAL ESTATE,EXETER,DEVON,EX2 7HY,20060701,50.7236,-3.52953333333333,E10000008,Devon,50.725578,-3.65698
RDZ,THE ROYAL BOURNEMOUTH AND CHRISTCHURCH HOSPITALS NHS FOUNDATION TRUST,Y57,Q70,ROYAL BOURNEMOUTH GENERAL HOSPITAL,CASTLE LANE EAST,,BOURNEMOUTH,DORSET,BH7 7DW,19920401,50.7363,-1.827,E06000058,"Bournemouth, Christchurch and Poole",50.74609,-1.84807
RDY,DORSET HEALTHCARE UNIVERSITY NHS FOUNDATION TRUST,Y57,Q70,SENTINEL HOUSE,4-6 NUFFIELD ROAD,NUFFIELD INDUSTRIAL ESTATE,POOLE,DORSET,BH17 0RB,19920401,50.747,-1.9801,E06000059,Dorset,50.79697,-2.41467
RYR,WESTERN SUSSEX HOSPITALS NHS FOUNDATION TRUST,Y57,Q81,WORTHING HOSPITAL,LYNDHURST ROAD,,WORTHING,WEST SUSSEX,BN11 2DH,20090401,50.818,-0.38285,E10000032,West Sussex,50.95134,-0.45933
RDR,SUSSEX COMMUNITY NHS FOUNDATION TRUST,Y57,Q81,BRIGHTON GENERAL HOSPITAL,ELM GROVE,,BRIGHTON,EAST SUSSEX,BN2 3EW,19920401,50.8364,-0.082825,E06000043,Brighton and Hove,50.8465,-0.15079
RXH,BRIGHTON AND SUSSEX UNIVERSITY HOSPITALS NHS TRUST,Y57,Q81,ROYAL SUSSEX COUNTY HOSPITAL,EASTERN ROAD,,BRIGHTON,EAST SUSSEX,BN2 5BE,20020401,50.8364,-0.082825,E06000043,Brighton and Hove,50.8465,-0.15079
RX2,SUSSEX PARTNERSHIP NHS FOUNDATION TRUST,Y57,Q81,ASSESSMENT AND TREATMENT CENTRE,CHAPEL STREET,,CHICHESTER,WEST SUSSEX,PO19 1BX,20060401,50.8379,-0.77915,E10000011,East Sussex,50.938049,0.334559
RHU,PORTSMOUTH HOSPITALS NHS TRUST,Y57,Q70,DE LA COURT HOUSE,QUEEN ALEXANDRA HOSPITAL,SOUTHWICK HILL ROAD,PORTSMOUTH,HAMPSHIRE,PO6 3LY,19930401,50.8505,-1.06046666666667,E06000044,Portsmouth,50.807999,-1.07006
RXC,EAST SUSSEX HEALTHCARE NHS TRUST,Y57,Q81,ST. ANNES HOUSE,729 THE RIDGE,,ST. LEONARDS-ON-SEA,EAST SUSSEX,TN37 7PT,20020401,50.8746,0.5477,E10000011,East Sussex,50.938049,0.334559
RW1,SOUTHERN HEALTH NHS FOUNDATION TRUST,Y57,Q70,MAPLES BUILDINGS,TATCHBURY MOUNT HOSPITAL,CALMORE,SOUTHAMPTON,HAMPSHIRE,SO40 2RZ,20010401,50.8897,-1.51341875,E06000045,Southampton,50.9212,-1.39952
R1C,SOLENT NHS TRUST,Y57,Q70,SOLENT NHS TRUST HEADQUARTERS,HIGHPOINT VENUE,BURSLEDON ROAD,SOUTHAMPTON,HAMPSHIRE,SO19 8BR,20110401,50.9045,-1.367075,E06000045,Southampton,50.9212,-1.39952
RYD,SOUTH EAST COAST AMBULANCE SERVICE NHS FOUNDATION TRUST,Y57,Q81,40-42 FRIARS WALK,,,LEWES,EAST SUSSEX,BN7 2XW,20060701,50.935,-0.0157,E06000043,Brighton and Hove,50.8465,-0.15079
RHM,UNIVERSITY HOSPITAL SOUTHAMPTON NHS FOUNDATION TRUST,Y57,Q70,MAILPOINT 18,SOUTHAMPTON GENERAL HOSPITAL,TREMONA ROAD,SOUTHAMPTON,HAMPSHIRE,SO16 6YD,19930401,50.9644,-1.431825,E06000045,Southampton,50.9212,-1.39952
RA4,YEOVIL DISTRICT HOSPITAL NHS FOUNDATION TRUST,Y57,Q80,YEOVIL DISTRICT HOSPITAL,HIGHER KINGSTON,,YEOVIL,SOMERSET,BA21 4AT,19910401,50.9743,-2.6077,E10000027,Somerset,51.071819,-3.29595
RBA,TAUNTON AND SOMERSET NHS FOUNDATION TRUST,Y57,Q80,MUSGROVE PARK HOSPITAL,,,TAUNTON,SOMERSET,TA1 5DA,19910401,51,-3.1091,E10000027,Somerset,51.071819,-3.29595
RNZ,SALISBURY NHS FOUNDATION TRUST,Y57,Q82,SALISBURY DISTRICT HOSPITAL,ODSTOCK ROAD,,SALISBURY,WILTSHIRE,SP2 8BJ,19940401,51.063,-1.86675555555556,E06000054,Wiltshire,51.328831,-1.92661
RPC,QUEEN VICTORIA HOSPITAL NHS FOUNDATION TRUST,Y57,Q81,HOLTYE ROAD,,,EAST GRINSTEAD,WEST SUSSEX,RH19 3DZ,19940401,51.1238,-0.022172727272727,E09000006,Bromley,51.372669,0.039246
RBZ,NORTHERN DEVON HEALTHCARE NHS TRUST,Y57,Q80,NORTH DEVON DISTRICT HOSPITAL,RALEIGH PARK,,BARNSTAPLE,DEVON,EX31 4JB,19910401,51.1304,-4.00851707317073,E10000008,Devon,50.725578,-3.65698
RH5,SOMERSET PARTNERSHIP NHS FOUNDATION TRUST,Y57,Q80,2ND FLOOR,MALLARD COURT,"EXPRESS PARK, BRISTOL ROAD",BRIDGWATER,SOMERSET,TA6 4RN,19930401,51.1392,-3.00647142857143,E10000027,Somerset,51.071819,-3.29595
RA2,ROYAL SURREY COUNTY HOSPITAL NHS FOUNDATION TRUST,Y57,Q81,EGERTON ROAD,,,GUILDFORD,SURREY,GU2 7XX,19910401,51.2336,-0.59775,E10000030,Surrey,51.268028,-0.33911
RTP,SURREY AND SUSSEX HEALTHCARE NHS TRUST,Y57,Q81,EAST SURREY HOSPITAL,CANADA AVENUE,,REDHILL,SURREY,RH1 5RH,19980401,51.2648,-0.1439625,E10000030,Surrey,51.268028,-0.33911
RVV,EAST KENT HOSPITALS UNIVERSITY NHS FOUNDATION TRUST,Y57,Q81,KENT & CANTERBURY HOSPITAL,ETHELBERT ROAD,,CANTERBURY,KENT,CT1 3NG,19990401,51.2691,1.06835,E10000016,Kent,51.192951,0.72137
RWF,MAIDSTONE AND TUNBRIDGE WELLS NHS TRUST,Y57,Q81,MAIDSTONE HOSPITAL,HERMITAGE LANE,,MAIDSTONE,KENT,ME16 9QQ,20000401,51.2738,0.497,E10000016,Kent,51.192951,0.72137
RYY,KENT COMMUNITY HEALTH NHS FOUNDATION TRUST,Y57,Q81,"UNIT D, THE OAST",HERMITAGE COURT,BARMING,MAIDSTONE,KENT,ME16 9NT,20101101,51.2738,0.497,E10000016,Kent,51.192951,0.72137
RDU,FRIMLEY HEALTH NHS FOUNDATION TRUST,Y57,Q81,PORTSMOUTH ROAD,,FRIMLEY,CAMBERLEY,SURREY,GU16 7UJ,19920401,51.2876,-0.71955,E10000016,Kent,51.192951,0.72137
RN5,HAMPSHIRE HOSPITALS NHS FOUNDATION TRUST,Y57,Q70,ALDERMASTON ROAD,,,BASINGSTOKE,HAMPSHIRE,RG24 9NA,19940401,51.2971,-1.08155,E10000014,Hampshire,51.044739,-1.24735
RXY,KENT AND MEDWAY NHS AND SOCIAL CARE PARTNERSHIP TRUST,Y57,Q81,35 KINGS HILL AVENUE,KINGS HILL,,WEST MALLING,KENT,ME19 4AX,20060401,51.2993,0.3965,E10000016,Kent,51.192951,0.72137
RXX,SURREY AND BORDERS PARTNERSHIP NHS FOUNDATION TRUST,Y57,Q81,18 MOLE BUSINESS PARK,RANDALLS ROAD,,LEATHERHEAD,SURREY,KT22 7AD,20050401,51.314,-0.343666666666667,E10000030,Surrey,51.268028,-0.33911
RA3,WESTON AREA HEALTH NHS TRUST,Y57,Q80,WESTON GENERAL HOSPITAL,GRANGE ROAD,UPHILL,WESTON-SUPER-MARE,AVON,BS23 4TQ,19910401,51.346,-2.9787,E10000027,Somerset,51.071819,-3.29595
RVR,EPSOM AND ST HELIER UNIVERSITY HOSPITALS NHS TRUST,Y56,Q71,ST HELIER HOSPITAL,WRYTHE LANE,,CARSHALTON,SURREY,SM5 1AA,19990401,51.3683,-0.1676,E10000030,Surrey,51.268028,-0.33911
RD1,ROYAL UNITED HOSPITALS BATH NHS FOUNDATION TRUST,Y57,Q82,COMBE PARK,,,BATH,AVON,BA1 3NG,19920401,51.3751,-2.36146923076923,E06000022,Bath and North East Somerset,51.356041,-2.48654
RTK,ASHFORD AND ST PETER'S HOSPITALS NHS FOUNDATION TRUST,Y57,Q81,ST PETERS HOSPITAL,GUILDFORD ROAD,,CHERTSEY,SURREY,KT16 0PZ,19980401,51.3775,-0.5415,E10000016,Kent,51.192951,0.72137
RPA,MEDWAY NHS FOUNDATION TRUST,Y57,Q81,MEDWAY MARITIME HOSPITAL,WINDMILL ROAD,,GILLINGHAM,KENT,ME7 5NY,19940401,51.3795,0.55842,E10000016,Kent,51.192951,0.72137
RJ6,CROYDON HEALTH SERVICES NHS TRUST,Y56,Q71,CROYDON UNIVERSITY HOSPITAL,LONDON ROAD,,THORNTON HEATH,SURREY,CR7 7YE,19930401,51.3833,-0.1,E09000008,Croydon,51.365978,-0.07761
RWX,BERKSHIRE HEALTHCARE NHS FOUNDATION TRUST,Y57,Q82,FITZWILLIAM HOUSE,SKIMPED HILL LANE,,BRACKNELL,BERKSHIRE,RG12 1BQ,20010401,51.4007,-0.7635,E06000036,Bracknell Forest,51.411301,-0.73363
RAX,KINGSTON HOSPITAL NHS FOUNDATION TRUST,Y56,Q71,GALSWORTHY ROAD,,,KINGSTON UPON THAMES,SURREY,KT2 7QB,19910401,51.4186,-0.2904,E09000027,Richmond upon Thames,51.44035,-0.28914
RY9,HOUNSLOW AND RICHMOND COMMUNITY HEALTHCARE NHS TRUST,Y56,Q71,THAMES HOUSE,180 - 194 HIGH STREET,,TEDDINGTON,MIDDLESEX,TW11 8HU,20110401,51.4223,-0.3305,E09000027,Richmond upon Thames,51.44035,-0.28914
RN7,DARTFORD AND GRAVESHAM NHS TRUST,Y57,Q81,DARENT VALLEY HOSPITAL,DARENTH WOOD ROAD,,DARTFORD,KENT,DA2 8DA,19940401,51.4271,0.2391,E10000016,Kent,51.192951,0.72137
RPG,OXLEAS NHS FOUNDATION TRUST,Y56,Q71,PINEWOOD HOUSE,PINEWOOD PLACE,,DARTFORD,KENT,DA2 7WG,19940401,51.4271,0.2391,E09000006,Bromley,51.372669,0.039246
RJ7,ST GEORGE'S UNIVERSITY HOSPITALS NHS FOUNDATION TRUST,Y56,Q71,ST GEORGE'S HOSPITAL,BLACKSHAW ROAD,TOOTING,LONDON,GREATER LONDON,SW17 0QT,19930401,51.4307,-0.1647,E09000032,Wandsworth,51.4524,-0.20023
RQY,SOUTH WEST LONDON AND ST GEORGE'S MENTAL HEALTH NHS TRUST,Y56,Q71,SPRINGFIELD HOSPITAL,61 GLENBURNIE ROAD,,LONDON,GREATER LONDON,SW17 7DJ,19950401,51.4307,-0.1647,E09000032,Wandsworth,51.4524,-0.20023
RA7,UNIVERSITY HOSPITALS BRISTOL NHS FOUNDATION TRUST,Y57,Q80,MARLBOROUGH STREET,,,BRISTOL,AVON,BS1 3NU,19910401,51.4552,-2.5966,E06000023,"Bristol, City of",51.471149,-2.57742
RHW,ROYAL BERKSHIRE NHS FOUNDATION TRUST,Y57,Q82,ROYAL BERKSHIRE HOSPITAL,LONDON ROAD,,READING,BERKSHIRE,RG1 5AN,19930401,51.4563,-0.9711,E06000038,Reading,51.453018,-0.99071
RJ2,LEWISHAM AND GREENWICH NHS TRUST,Y56,Q71,UNIVERSITY HOSPITAL LEWISHAM,LEWISHAM HIGH STREET,,LONDON,GREATER LONDON,SE13 6LH,19930401,51.4643,-0.0119,E09000023,Lewisham,51.44231,-0.01733
RVN,AVON AND WILTSHIRE MENTAL HEALTH PARTNERSHIP NHS TRUST,Y57,Q82,JENNER HOUSE,"AVON WAY, LANGLEY PARK",,CHIPPENHAM,WILTSHIRE,SN15 1GG,19990401,51.4721,-2.071503125,E06000054,Wiltshire,51.328831,-1.92661
RJZ,KING'S COLLEGE HOSPITAL NHS FOUNDATION TRUST,Y56,Q71,DENMARK HILL,,,LONDON,GREATER LONDON,SE5 9RS,19930401,51.4739,-0.090125,E09000022,Lambeth,51.464451,-0.11385
RV5,SOUTH LONDON AND MAUDSLEY NHS FOUNDATION TRUST,Y56,Q71,MAUDSLEY HOSPITAL,DENMARK HILL,,LONDON,GREATER LONDON,SE5 8AZ,19990401,51.4739,-0.090125,E09000022,Lambeth,51.464451,-0.11385
RFW,WEST MIDDLESEX UNIVERSITY HOSPITAL NHS TRUST,Y56,Q71,TWICKENHAM ROAD,,,ISLEWORTH,MIDDLESEX,TW7 6AF,19930401,51.4752,-0.3425,E09000020,Kensington and Chelsea,51.496441,-0.18976
RYT,PUBLIC HEALTH WALES NHS TRUST,W00,Q99,14 CATHEDRAL ROAD,,,CARDIFF,SOUTH GLAMORGAN,CF11 9LJ,20091001,51.48,-3.18,W06000015,Cardiff,51.502541,-3.22208
RQM,CHELSEA AND WESTMINSTER HOSPITAL NHS FOUNDATION TRUST,Y56,Q71,CHELSEA & WESTMINSTER HOSPITAL,369 FULHAM ROAD,,LONDON,GREATER LONDON,SW10 9NH,19940401,51.4876,-0.1694,E09000033,Westminster,51.512199,-0.15295
RPY,THE ROYAL MARSDEN NHS FOUNDATION TRUST,Y56,Q71,FULHAM ROAD,,,LONDON,GREATER LONDON,SW3 6JJ,19940401,51.4876,-0.165875,E09000029,Sutton,51.357559,-0.17227
RT3,ROYAL BROMPTON & HAREFIELD NHS FOUNDATION TRUST,Y56,Q71,ROYAL BROMPTON HOSPITAL,SYDNEY STREET,,LONDON,GREATER LONDON,SW3 6NP,19980401,51.4876,-0.165875,E09000029,Sutton,51.357559,-0.17227
RJ1,GUY'S AND ST THOMAS' NHS FOUNDATION TRUST,Y56,Q71,TRUST OFFICES,GUY'S HOSPITAL,GREAT MAZE POND,LONDON,GREATER LONDON,SE1 9RT,19930401,51.5025,-0.093038461538462,E09000028,Southwark,51.465919,-0.07306
RRU,LONDON AMBULANCE SERVICE NHS TRUST,Y56,Q71,220 WATERLOO ROAD,,,LONDON,GREATER LONDON,SE1 8SD,19960401,51.5025,-0.093038461538462,E09000028,Southwark,51.465919,-0.07306
RP4,GREAT ORMOND STREET HOSPITAL FOR CHILDREN NHS FOUNDATION TRUST,Y56,Q71,GREAT ORMOND STREET,,,LONDON,GREATER LONDON,WC1N 3JH,19940401,51.5085,-0.1257,E09000022,Lambeth,51.464451,-0.11385
RYX,CENTRAL LONDON COMMUNITY HEALTHCARE NHS TRUST,Y56,Q71,7TH FLOOR,64 VICTORIA STREET,,LONDON,GREATER LONDON,SW1E 6QP,20101101,51.5085,-0.1257,E09000022,Lambeth,51.464451,-0.11385
RKL,WEST LONDON MENTAL HEALTH NHS TRUST,Y56,Q71,TRUST HEADQUARTERS,ST BERNARDS HOSPITAL,UXBRIDGE ROAD,SOUTHALL,MIDDLESEX,UB1 3EU,20010401,51.509,-0.3713,E09000018,Hounslow,51.462429,-0.37847
RVJ,NORTH BRISTOL NHS TRUST,Y57,Q80,SOUTHMEAD HOSPITAL,SOUTHMEAD ROAD,WESTBURY-ON-TRYM,BRISTOL,AVON,BS10 5NB,19990401,51.5099,-2.63536666666667,E06000023,"Bristol, City of",51.471149,-2.57742
RYJ,IMPERIAL COLLEGE HEALTHCARE NHS TRUST,Y56,Q71,ST. MARYS HOSPITAL,PRAED STREET,,LONDON,GREATER LONDON,W2 1NY,20071001,51.5143,-0.188645454545455,E09000020,Kensington and Chelsea,51.496441,-0.18976
R1H,BARTS HEALTH NHS TRUST,Y56,Q71,THE ROYAL LONDON HOSPITAL,WHITECHAPEL,,LONDON,GREATER LONDON,E1 1BB,20120401,51.5175,-0.061772727272727,E09000001,City of London,51.515652,-0.09353
RWK,EAST LONDON NHS FOUNDATION TRUST,Y56,Q71,20-24 COMMERCIAL STREET,,,LONDON,GREATER LONDON,E1 6LP,20000401,51.5175,-0.061772727272727,E09000030,Tower Hamlets,51.515541,-0.03643
RP6,MOORFIELDS EYE HOSPITAL NHS FOUNDATION TRUST,Y56,Q71,162 CITY ROAD,,,LONDON,GREATER LONDON,EC1V 2PD,19940401,51.5265,-0.0986,E09000019,Islington,51.545479,-0.10992
RAS,THE HILLINGDON HOSPITALS NHS FOUNDATION TRUST,Y56,Q71,PIELD HEATH ROAD,,,UXBRIDGE,MIDDLESEX,UB8 3NN,19910401,51.5312,-0.479133333333333,E09000017,Hillingdon,51.536629,-0.44182
RRV,UNIVERSITY COLLEGE LONDON HOSPITALS NHS FOUNDATION TRUST,Y56,Q71,250 EUSTON ROAD,,,LONDON,GREATER LONDON,NW1 2PG,19960401,51.5333,-0.147181818181818,E09000007,Camden,51.54306,-0.16289
RV3,CENTRAL AND NORTH WEST LONDON NHS FOUNDATION TRUST,Y56,Q71,STEPHENSON HOUSE,75 HAMPSTEAD ROAD,,LONDON,GREATER LONDON,NW1 2PL,19990401,51.5333,-0.147181818181818,E09000007,Camden,51.54306,-0.16289
RQF,VELINDRE NHS TRUST,W00,Q99,UNIT 2,CHARNWOOD COURT,HEOL BILLINGSLEY,CARDIFF,SOUTH GLAMORGAN,CF15 7QZ,19940401,51.5337,-3.2721,W06000015,Cardiff and Vale,51.502541,-3.22208
RQX,HOMERTON UNIVERSITY HOSPITAL NHS FOUNDATION TRUST,Y56,Q71,HOMERTON ROW,,,LONDON,GREATER LONDON,E9 6SR,19950401,51.5394,-0.0414,E09000012,Hackney,51.55492,-0.06045
RAJ,SOUTHEND UNIVERSITY HOSPITAL NHS FOUNDATION TRUST,Y55,Q79,PRITTLEWELL CHASE,,,WESTCLIFF-ON-SEA,ESSEX,SS0 0RY,19910401,51.5442,0.6974,E06000033,Southend-on-Sea,51.549171,0.706923
RAL,ROYAL FREE LONDON NHS FOUNDATION TRUST,Y56,Q71,ROYAL FREE HOSPITAL,POND STREET,,LONDON,GREATER LONDON,NW3 2QG,19910401,51.5574,-0.168075,E09000007,Camden,51.54306,-0.16289
RNK,TAVISTOCK AND PORTMAN NHS FOUNDATION TRUST,Y56,Q71,THE TAVISTOCK CENTRE,120 BELSIZE LANE,,LONDON,GREATER LONDON,NW3 5BA,19940401,51.5574,-0.168075,E09000007,Camden,51.54306,-0.16289
RF4,"BARKING, HAVERING AND REDBRIDGE UNIVERSITY HOSPITALS NHS TRUST",Y56,Q71,QUEENS HOSPITAL,ROM VALLEY WAY,,ROMFORD,ESSEX,RM7 0AG,20010401,51.5602,0.1792,E09000002,Barking and Dagenham,51.545551,0.129479
RDD,BASILDON AND THURROCK UNIVERSITY HOSPITALS NHS FOUNDATION TRUST,Y55,Q79,BASILDON HOSPITAL,,NETHERMAYNE,BASILDON,ESSEX,SS16 5NL,19920401,51.5605,0.452375,E06000034,Thurrock,51.509979,0.334861
RAT,NORTH EAST LONDON NHS FOUNDATION TRUST,Y56,Q71,TANTALLON HOUSE,GOODMAYES HOSPITAL SITE,BARLEY LANE,ILFORD,ESSEX,IG3 8XJ,20010401,51.564,0.0963,E09000001,City of London,51.515652,-0.09353
RKE,THE WHITTINGTON HOSPITAL NHS TRUST,Y56,Q71,THE WHITTINGTON HOSPITAL,MAGDALA AVENUE,,LONDON,GREATER LONDON,N19 5NF,19930401,51.5649,-0.1351,E09000033,Westminster,51.512199,-0.15295
R1K,LONDON NORTH WEST HEALTHCARE NHS TRUST,Y56,Q71,NORTHWICK PARK HOSPITAL,WATFORD ROAD,,HARROW,MIDDLESEX,HA1 3UJ,20141001,51.5834,-0.33615,E09000009,Ealing,51.524429,-0.31407
RRP,"BARNET, ENFIELD AND HARINGEY MENTAL HEALTH NHS TRUST",Y56,Q71,TRUST HEADQUARTERS BLOCK B2,ST ANN'S HOSPITAL,ST ANN'S ROAD,LONDON,GREATER LONDON,N15 3TH,20010401,51.5843,-0.073,E09000003,Barnet,51.61108,-0.21821
RN3,GREAT WESTERN HOSPITALS NHS FOUNDATION TRUST,Y57,Q82,GREAT WESTERN HOSPITAL,MARLBOROUGH ROAD,,SWINDON,WILTSHIRE,SN3 6BB,19940401,51.5892,-1.7194,E06000030,Swindon,51.577629,-1.73367
RWN,SOUTH ESSEX PARTNERSHIP UNIVERSITY NHS FOUNDATION TRUST,Y55,Q79,"THE LODGE, RUNWELL HOSPITAL",RUNWELL CHASE,RUNWELL,WICKFORD,ESSEX,SS11 7XX,20000401,51.6166,0.5607,E10000012,Essex,51.809818,0.54106
RAN,ROYAL NATIONAL ORTHOPAEDIC HOSPITAL NHS TRUST,Y56,Q71,BROCKLEY HILL,,,STANMORE,MIDDLESEX,HA7 4LP,19910401,51.6167,-0.3167,E09000015,Harrow,51.594669,-0.33603
RAP,NORTH MIDDLESEX UNIVERSITY HOSPITAL NHS TRUST,Y56,Q71,STERLING WAY,,,LONDON,GREATER LONDON,N18 1QX,19910401,51.6256,-0.0583,E09000026,Redbridge,51.585892,0.070071
RWG,WEST HERTFORDSHIRE HOSPITALS NHS TRUST,Y55,Q78,TRUST OFFICES,WATFORD GENERAL HOSPITAL,VICARAGE ROAD,WATFORD,HERTFORDSHIRE,WD18 0HB,20000401,51.6553,-0.396,E10000015,Hertfordshire,51.808788,-0.27699
RXQ,BUCKINGHAMSHIRE HEALTHCARE NHS TRUST,Y57,Q82,AMERSHAM HOSPITAL,WHIELDEN STREET,,AMERSHAM,BUCKINGHAMSHIRE,HP7 0JD,20030401,51.6683,-0.617316666666667,E10000002,Buckinghamshire,51.769661,-0.80569
RNU,OXFORD HEALTH NHS FOUNDATION TRUST,Y57,Q82,CORPORATE HEADQUARTERS,4000 JOHN SMITH DRIVE,OXFORD BUSINESS PARK SOUTH,OXFORD,OXFORDSHIRE,OX4 2GX,19940401,51.7116,-1.224375,E10000025,Oxfordshire,51.771549,-1.29146
RRD,NORTH ESSEX PARTNERSHIP UNIVERSITY NHS FOUNDATION TRUST,Y55,Q79,STAPLEFORD HOUSE,STAPLEFORD CLOSE,,CHELMSFORD,ESSEX,CM2 0QX,20010401,51.7212,0.4896375,E10000012,Essex,51.809818,0.54106
RQ8,MID ESSEX HOSPITAL SERVICES NHS TRUST,Y55,Q79,BROOMFIELD HOSPITAL,COURT ROAD,,CHELMSFORD,ESSEX,CM1 7ET,19950401,51.7357,0.4079,E10000012,Essex,51.809818,0.54106
RQW,THE PRINCESS ALEXANDRA HOSPITAL NHS TRUST,Y55,Q79,HAMSTEL ROAD,,,HARLOW,ESSEX,CM20 1QX,19950401,51.7751,0.096666666666667,E10000012,Essex,51.809818,0.54106
RTH,OXFORD UNIVERSITY HOSPITALS NHS FOUNDATION TRUST,Y57,Q82,JOHN RADCLIFFE HOSPITAL,HEADLEY WAY,HEADINGTON,OXFORD,OXFORDSHIRE,OX3 9DU,19980401,51.7804,-1.21716666666667,E10000025,Oxfordshire,51.771549,-1.29146
RY4,HERTFORDSHIRE COMMUNITY NHS TRUST,Y55,Q78,14 TEWIN ROAD,,,WELWYN GARDEN CITY,HERTFORDSHIRE,AL7 1BW,20101101,51.7969,-0.1871,E10000015,Hertfordshire,51.808788,-0.27699
RTE,GLOUCESTERSHIRE HOSPITALS NHS FOUNDATION TRUST,Y57,Q82,TRUST HQ,1 COLLEGE LAWN,,CHELTENHAM,GLOUCESTERSHIRE,GL53 7AG,20020401,51.8308,-2.05427,E10000013,Gloucestershire,51.81971,-2.15235
RWR,HERTFORDSHIRE PARTNERSHIP UNIVERSITY NHS FOUNDATION TRUST,Y55,Q78,99 WAVERLEY ROAD,,,ST. ALBANS,HERTFORDSHIRE,AL3 5TL,20010401,51.8379,-0.4184,E10000015,Hertfordshire,51.808788,-0.27699
R1J,GLOUCESTERSHIRE CARE SERVICES NHS TRUST,Y57,Q82,EDWARD JENNER COURT,1010 PIONEER AVENUE,"GLOUCESTER BUSINESS PK, BROCKWORTH",GLOUCESTER,GLOUCESTERSHIRE,GL3 4AW,20130322,51.8457,-2.162575,E10000013,Gloucestershire,51.81971,-2.15235
RTQ,2GETHER NHS FOUNDATION TRUST,Y57,Q82,RIKENEL,MONTPELLIER,,GLOUCESTER,GLOUCESTERSHIRE,GL1 1LY,20020401,51.8657,-2.2431,E10000013,Gloucestershire,51.81971,-2.15235
RYE,SOUTH CENTRAL AMBULANCE SERVICE NHS FOUNDATION TRUST,Y57,Q82,7-8 TALISMAN ROAD,,,BICESTER,OXFORDSHIRE,OX26 6HR,20060701,51.9,-1.1536,E10000002,Buckinghamshire,51.769661,-0.80569
RWH,EAST AND NORTH HERTFORDSHIRE NHS TRUST,Y55,Q78,LISTER HOSPITAL,COREYS MILL LANE,,STEVENAGE,HERTFORDSHIRE,SG1 4AB,20000401,51.9022,-0.2026,E10000015,Hertfordshire,51.808788,-0.27699
RC9,LUTON AND DUNSTABLE UNIVERSITY HOSPITAL NHS FOUNDATION TRUST,Y55,Q78,LEWSEY ROAD,,,LUTON,BEDFORDSHIRE,LU4 0DZ,19920401,51.9279,-0.48075,E10000015,Hertfordshire,51.808788,-0.27699
RDE,COLCHESTER HOSPITAL UNIVERSITY NHS FOUNDATION TRUST,Y55,Q79,COLCHESTER DISTRICT GENERAL HO,TURNER ROAD,,COLCHESTER,ESSEX,CO4 5JL,19920401,51.95,0.92045,E10000012,Essex,51.809818,0.54106
RD8,MILTON KEYNES UNIVERSITY HOSPITAL NHS FOUNDATION TRUST,Y55,Q78,STANDING WAY,EAGLESTONE,,MILTON KEYNES,BUCKINGHAMSHIRE,MK6 5LD,19920401,52.0292,-0.7279,E06000042,Milton Keynes,52.072411,-0.7407
RGQ,IPSWICH HOSPITAL NHS TRUST,Y55,Q79,HEATH ROAD,,,IPSWICH,SUFFOLK,IP4 5PD,19930401,52.0592,1.1555,E10000029,Suffolk,52.253849,1.04919
RLQ,WYE VALLEY NHS TRUST,Y55,Q77,COUNTY HOSPITAL,UNION WALK,,HEREFORD,HEREFORDSHIRE,HR1 2ER,19940401,52.0658,-2.61299069767442,E06000019,"Herefordshire, County of",52.081539,-2.73931
RC1,BEDFORD HOSPITAL NHS TRUST,Y55,Q78,SOUTH WING,KEMPSTON ROAD,,BEDFORD,BEDFORDSHIRE,MK42 9DJ,19920401,52.1073,-0.479766666666667,E06000055,Bedford,52.196281,-0.45463
RWP,WORCESTERSHIRE ACUTE HOSPITALS NHS TRUST,Y55,Q77,WORCESTERSHIRE ROYAL HOSPITAL,CHARLES HASTINGS WAY,,WORCESTER,WORCESTERSHIRE,WR5 1DD,20000401,52.1394,-2.19744285714286,E10000034,Worcestershire,52.212872,-2.20935
RT1,CAMBRIDGESHIRE AND PETERBOROUGH NHS FOUNDATION TRUST,Y55,Q79,"ELIZABETH HOUSE, FULBOURN HOSPITAL",CAMBRIDGE ROAD,FULBOURN,CAMBRIDGE,CAMBRIDGESHIRE,CB21 5EF,20020401,52.1832,0.287088888888889,E10000003,Cambridgeshire,52.349659,-0.23506
RGT,CAMBRIDGE UNIVERSITY HOSPITALS NHS FOUNDATION TRUST,Y55,Q79,ADDENBROOKES HOSPITAL,HILLS ROAD,,CAMBRIDGE,CAMBRIDGESHIRE,CB2 0QQ,19930401,52.191,0.124021428571429,E10000003,Cambridgeshire,52.349659,-0.23506
R1A,WORCESTERSHIRE HEALTH AND CARE NHS TRUST,Y55,Q77,ISAAC MADDOX HOUSE,SHRUB HILL INDUSTRIAL ESTATE,,WORCESTER,WORCESTERSHIRE,WR4 9RW,20110701,52.2038,-2.1897,E10000034,Worcestershire,52.212872,-2.20935
RGM,PAPWORTH HOSPITAL NHS FOUNDATION TRUST,Y55,Q79,PAPWORTH EVERARD,,,CAMBRIDGE,CAMBRIDGESHIRE,CB23 3RE,19930401,52.2058,-0.010105882352941,E10000003,Cambridgeshire,52.349659,-0.23506
RNS,NORTHAMPTON GENERAL HOSPITAL NHS TRUST,Y55,Q78,CLIFTONVILLE,,,NORTHAMPTON,NORTHAMPTONSHIRE,NN1 5BD,19940401,52.25,-0.8833,E10000021,Northamptonshire,52.31105,-0.86668
RGR,WEST SUFFOLK NHS FOUNDATION TRUST,Y55,Q79,HARDWICK LANE,,,BURY ST EDMUNDS,SUFFOLK,IP33 2QZ,19930401,52.25,0.6889,E10000029,Suffolk,52.253849,1.04919
RJC,SOUTH WARWICKSHIRE NHS FOUNDATION TRUST,Y55,Q77,WARWICK HOSPITAL,LAKIN ROAD,,WARWICK,WARWICKSHIRE,CV34 5BW,19930401,52.2833,-1.58235,E10000031,Warwickshire,52.179771,-1.56874
RQQ,HINCHINGBROOKE HEALTH CARE NHS TRUST,Y55,Q79,HINCHINGBROOKE HOSPITAL,,,HUNTINGDON,CAMBRIDGESHIRE,PE29 6NT,19950401,52.3305,-0.1865,E10000003,Cambridgeshire,52.349659,-0.23506
RYV,CAMBRIDGESHIRE COMMUNITY SERVICES NHS TRUST,Y55,Q79,UNIT 3,MEADOW LANE,,ST. IVES,CAMBRIDGESHIRE,PE27 4LG,20100401,52.3325,-0.075,E10000003,Cambridgeshire,52.349659,-0.23506
RP1,NORTHAMPTONSHIRE HEALTHCARE NHS FOUNDATION TRUST,Y55,Q78,SUDBOROUGH HOUSE,ST. MARYS HOSPITAL,77 LONDON ROAD,KETTERING,NORTHAMPTONSHIRE,NN15 7PW,20010401,52.3637,-0.6785,E10000021,Northamptonshire,52.31105,-0.86668
RRJ,THE ROYAL ORTHOPAEDIC HOSPITAL NHS FOUNDATION TRUST,Y55,Q77,THE WOODLANDS,BRISTOL ROAD SOUTH,NORTHFIELD,BIRMINGHAM,WEST MIDLANDS,B31 2AP,19950401,52.4,-1.975,E08000025,Birmingham,52.484039,-1.88141
RNQ,KETTERING GENERAL HOSPITAL NHS FOUNDATION TRUST,Y55,Q78,ROTHWELL ROAD,,,KETTERING,NORTHAMPTONSHIRE,NN16 8UZ,19940401,52.4079,-0.7116,E10000021,Northamptonshire,52.31105,-0.86668
RKB,UNIVERSITY HOSPITALS COVENTRY AND WARWICKSHIRE NHS TRUST,Y55,Q77,WALSGRAVE GENERAL HOSPITAL,CLIFFORD BRIDGE ROAD,,COVENTRY,WEST MIDLANDS,CV2 2DX,19930401,52.4242,-1.459175,E08000026,Coventry,52.41423,-1.51908
RYG,COVENTRY AND WARWICKSHIRE PARTNERSHIP NHS TRUST,Y55,Q77,WAYSIDE HOUSE,WILSONS LANE,,COVENTRY,WEST MIDLANDS,CV6 6NY,20061001,52.4393,-1.49987142857143,E08000026,Coventry,52.41423,-1.51908
RLU,BIRMINGHAM WOMEN'S NHS FOUNDATION TRUST,Y55,Q77,BIRMINGHAM WOMENS HOSPITAL,METCHLEY PARK ROAD,,BIRMINGHAM,WEST MIDLANDS,B15 2TG,19940401,52.4623,-1.9212,E08000025,Birmingham,52.484039,-1.88141
RRK,UNIVERSITY HOSPITALS BIRMINGHAM NHS FOUNDATION TRUST,Y55,Q77,"TRUST HQ, PO BOX 9551",QUEEN ELIZABETH MEDICAL CENTRE,EDGBASTON,BIRMINGHAM,WEST MIDLANDS,B15 2TH,19950401,52.4623,-1.9212,E08000025,Birmingham,52.484039,-1.88141
RR1,HEART OF ENGLAND NHS FOUNDATION TRUST,Y55,Q77,BIRMINGHAM HEARTLANDS HOSPITAL,BORDESLEY GREEN EAST,,BIRMINGHAM,WEST MIDLANDS,B9 5ST,19960401,52.4783,-1.8506,E08000025,Birmingham,52.484039,-1.88141
RQ3,BIRMINGHAM CHILDREN'S HOSPITAL NHS FOUNDATION TRUST,Y55,Q77,STEELHOUSE LANE,,,BIRMINGHAM,WEST MIDLANDS,B4 6NH,19950401,52.4814,-1.8998,E08000025,Birmingham,52.484039,-1.88141
RXK,SANDWELL AND WEST BIRMINGHAM HOSPITALS NHS TRUST,Y55,Q77,CITY HOSPITAL,DUDLEY ROAD,,BIRMINGHAM,WEST MIDLANDS,B18 7QH,20020401,52.4814,-1.8998,E08000028,Sandwell,52.514771,-2.00771
RXT,BIRMINGHAM AND SOLIHULL MENTAL HEALTH NHS FOUNDATION TRUST,Y55,Q77,UNIT 1,50 SUMMER HILL ROAD,,BIRMINGHAM,WEST MIDLANDS,B1 3RB,20030401,52.4814,-1.8998,E08000029,Solihull,52.431,-1.71558
RYK,DUDLEY AND WALSALL MENTAL HEALTH PARTNERSHIP NHS TRUST,Y55,Q77,TRAFALGAR HOUSE,47-49 KING STREET,,DUDLEY,WEST MIDLANDS,DY2 8PS,20081001,52.4833,-2.0833,E08000027,Dudley,52.495129,-2.10171
RYA,WEST MIDLANDS AMBULANCE SERVICE NHS FOUNDATION TRUST,Y55,Q77,WATERFRONT BUSINESS PARK,WATERFRONT WAY,,BRIERLEY HILL,WEST MIDLANDS,DY5 1LX,20060701,52.4909,-2.119025,E08000027,Dudley,52.495129,-2.10171
RYW,BIRMINGHAM COMMUNITY HEALTHCARE NHS FOUNDATION TRUST,Y55,Q77,"3, PRIESTLEY WHARF","HOLT STREET,","BIRMINGHAM SCIENCE PARK, ASTON",BIRMINGHAM,WEST MIDLANDS,B7 4BN,20101101,52.4941,-1.8726,E08000025,Birmingham,52.484039,-1.88141
RLT,GEORGE ELIOT HOSPITAL NHS TRUST,Y55,Q77,LEWES HOUSE,COLLEGE STREET,,NUNEATON,WARWICKSHIRE,CV10 7DJ,19940401,52.4994,-1.5322,E10000031,Warwickshire,52.179771,-1.56874
RNA,THE DUDLEY GROUP NHS FOUNDATION TRUST,Y55,Q77,C BLOCK,RUSSELLS HALL HOSPITAL,PENSNETT ROAD,DUDLEY,WEST MIDLANDS,DY1 2HQ,19940401,52.5,-2.0833,E08000027,Dudley,52.495129,-2.10171
RGP,JAMES PAGET UNIVERSITY HOSPITALS NHS FOUNDATION TRUST,Y55,Q79,LOWESTOFT ROAD,,GORLESTON,GREAT YARMOUTH,NORFOLK,NR31 6LA,19930401,52.5333,1.70428571428571,E10000020,Norfolk,52.67123,0.964714
RGN,PETERBOROUGH AND STAMFORD HOSPITALS NHS FOUNDATION TRUST,Y55,Q79,EDITH CAVELL HOSPITAL,BRETTON GATE,BRETTON,PETERBOROUGH,CAMBRIDGESHIRE,PE3 9GZ,19930401,52.567,-0.283,E06000031,Peterborough,52.59214,-0.26874
RBK,WALSALL HEALTHCARE NHS TRUST,Y55,Q77,MANOR HOSPITAL,MOAT ROAD,,WALSALL,WEST MIDLANDS,WS2 9PS,19910401,52.5853,-1.984,E08000030,Walsall,52.60503,-1.97044
RM1,NORFOLK AND NORWICH UNIVERSITY HOSPITALS NHS FOUNDATION TRUST,Y55,Q79,COLNEY LANE,COLNEY,,NORWICH,NORFOLK,NR4 7UY,19940401,52.6105,1.24368,E10000020,Norfolk,52.67123,0.964714
RY3,NORFOLK COMMUNITY HEALTH AND CARE NHS TRUST,Y55,Q79,ELLIOT HOUSE,130 BER STREET,,NORWICH,NORFOLK,NR1 3FR,20101101,52.6271,1.3072,E10000020,Norfolk,52.67123,0.964714
RWE,UNIVERSITY HOSPITALS OF LEICESTER NHS TRUST,Y55,Q78,GWENDOLEN HOUSE,GWENDOLEN ROAD,,LEICESTER,LEICESTERSHIRE,LE5 4QF,20000401,52.6474,-1.0865,E06000016,Leicester,52.635921,-1.1304
RT5,LEICESTERSHIRE PARTNERSHIP NHS TRUST,Y55,Q78,RIVERSIDE HOUSE,BRIDGE PARK PLAZA,"BRIDGE PARK ROAD, THURMASTON",LEICESTER,LEICESTERSHIRE,LE4 8PQ,19990401,52.65,-1.10873333333333,E10000018,Leicestershire,52.68779,-1.3779
RL4,THE ROYAL WOLVERHAMPTON NHS TRUST,Y55,Q77,NEW CROSS HOSPITAL,WOLVERHAMPTON ROAD,HEATH TOWN,WOLVERHAMPTON,WEST MIDLANDS,WV10 0QP,19940401,52.6511,-2.10142857142857,E08000031,Wolverhampton,52.597881,-2.12746
RMY,NORFOLK AND SUFFOLK NHS FOUNDATION TRUST,Y55,Q79,HELLESDON HOSPITAL,DRAYTON HIGH ROAD,,NORWICH,NORFOLK,NR6 5BE,19940401,52.6618,1.27955,E10000020,Norfolk,52.67123,0.964714
RYC,EAST OF ENGLAND AMBULANCE SERVICE NHS TRUST,Y55,Q79,AMBULANCE STATION,HOSPITAL LANE,HELLESDON,NORWICH,NORFOLK,NR6 5NA,20060701,52.6618,1.27955,E10000020,Norfolk,52.67123,0.964714
R1D,SHROPSHIRE COMMUNITY HEALTH NHS TRUST,Y55,Q76,WILLIAM FARR HOUSE,MYTTON OAK ROAD,,SHREWSBURY,SHROPSHIRE,SY3 8XL,20110701,52.699,-2.77491428571429,E06000051,Shropshire,52.62212,-2.73667
RXW,SHREWSBURY AND TELFORD HOSPITAL NHS TRUST,Y55,Q76,MYTTON OAK ROAD,,,SHREWSBURY,SHROPSHIRE,SY3 8XQ,20031001,52.699,-2.77491428571429,E06000051,Shropshire,52.62212,-2.73667
RCX,"THE QUEEN ELIZABETH HOSPITAL, KING'S LYNN, NHS FOUNDATION TRUST",Y55,Q79,QUEEN ELIZABETH HOSPITAL,GAYTON ROAD,,KINGS LYNN,NORFOLK,PE30 4ET,19920401,52.7573,0.420875,E10000020,Norfolk,52.67123,0.964714
RJF,BURTON HOSPITALS NHS FOUNDATION TRUST,Y55,Q76,QUEEN'S HOSPITAL,BELVEDERE ROAD,,BURTON-ON-TRENT,STAFFORDSHIRE,DE13 0RB,19930401,52.7667,-1.7144619047619,E10000028,Staffordshire,52.909302,-2.02756
RJD,MID STAFFORDSHIRE NHS FOUNDATION TRUST,Y55,Q76,STAFFORD HOSPITAL,WESTON ROAD,,STAFFORD,STAFFORDSHIRE,ST16 3SA,19930401,52.8052,-2.1164,E10000028,Staffordshire,52.909302,-2.02756
RRE,SOUTH STAFFORDSHIRE AND SHROPSHIRE HEALTHCARE NHS FOUNDATION TRUST,Y55,Q76,TRUST HEADQUARTERS,ST. GEORGES HOSPITAL,CORPORATION STREET,STAFFORD,STAFFORDSHIRE,ST16 3SR,20010401,52.8052,-2.1164,E10000028,Staffordshire,52.909302,-2.02756
RL1,THE ROBERT JONES AND AGNES HUNT ORTHOPAEDIC HOSPITAL NHS FOUNDATION TRUST,Y55,Q76,GOBOWEN,,,OSWESTRY,SHROPSHIRE,SY10 7AG,19940401,52.8961,-3.14697358490566,E06000051,Shropshire,52.62212,-2.73667
RTG,DERBY TEACHING HOSPITALS NHS FOUNDATION TRUST,Y55,Q76,ROYAL DERBY HOSPITAL,UTTOXETER ROAD,,DERBY,DERBYSHIRE,DE22 3NE,19980401,52.936,-1.521125,E06000015,Derby,52.914639,-1.47189
RXM,DERBYSHIRE HEALTHCARE NHS FOUNDATION TRUST,Y55,Q76,TRUST HEADQUARTERS,KINGSWAY HOSPITAL,KINGSWAY,DERBY,DERBYSHIRE,DE22 3LZ,20020401,52.936,-1.521125,E06000015,Derby,52.914639,-1.47189
R1E,STAFFORDSHIRE AND STOKE ON TRENT PARTNERSHIP NHS TRUST,Y55,Q76,"2ND FLOOR, MORSTON HOUSE",,,NEWCASTLE-UNDER-LYME,STAFFORDSHIRE,ST5 1QG,20110901,52.95,-2.25353333333333,E06000021,Stoke-on-Trent,53.017071,-2.15888
RHA,NOTTINGHAMSHIRE HEALTHCARE NHS FOUNDATION TRUST,Y55,Q76,"THE RESOURCE, TRUST HQ",DUNCAN MACMILLAN HOUSE,PORCHESTER ROAD,NOTTINGHAM,NOTTINGHAMSHIRE,NG3 6AA,20010401,52.9536,-1.1505,E06000018,Nottingham,52.954189,-1.16667
RX1,NOTTINGHAM UNIVERSITY HOSPITALS NHS TRUST,Y55,Q76,TRUST HEADQUARTERS,QUEENS MEDICAL CENTRE,DERBY ROAD,NOTTINGHAM,NOTTINGHAMSHIRE,NG7 2UH,20060401,52.9536,-1.1505,E06000018,Nottingham,52.954189,-1.16667
RX9,EAST MIDLANDS AMBULANCE SERVICE NHS TRUST,Y55,Q76,1 HORIZON PLACE,MELLORS WAY,NOTTINGHAM BUSINESS PARK,NOTTINGHAM,NOTTINGHAMSHIRE,NG8 6PY,20060701,52.9648,-1.2132,E06000018,Nottingham,52.954189,-1.16667
RP7,LINCOLNSHIRE PARTNERSHIP NHS FOUNDATION TRUST,Y55,Q78,UNIT'S 8 & 9,THE POINT,LIONS WAY,SLEAFORD,LINCOLNSHIRE,NG34 8GG,20010401,52.9769,-0.384945454545455,E10000019,Lincolnshire,53.111019,-0.23884
RJE,UNIVERSITY HOSPITALS OF NORTH MIDLANDS NHS TRUST,Y55,Q76,NEWCASTLE ROAD,,,STOKE-ON-TRENT,STAFFORDSHIRE,ST4 6QG,19930401,52.9909,-2.1802,E06000021,Stoke-on-Trent,53.017071,-2.15888
RLY,NORTH STAFFORDSHIRE COMBINED HEALTHCARE NHS TRUST,Y55,Q76,BELLRINGER ROAD,TRENTHAM,,STOKE-ON-TRENT,STAFFORDSHIRE,ST4 8HH,19940401,52.9909,-2.1802,E06000021,Stoke-on-Trent,53.017071,-2.15888
RBT,MID CHESHIRE HOSPITALS NHS FOUNDATION TRUST,Y54,Q75,LEIGHTON HOSPITAL,LEIGHTON,,CREWE,CHESHIRE,CW1 4QJ,19910401,53.0925,-2.389,E06000049,Cheshire East,53.167931,-2.29299
RK5,SHERWOOD FOREST HOSPITALS NHS FOUNDATION TRUST,Y55,Q76,MANSFIELD ROAD,,,SUTTON-IN-ASHFIELD,NOTTINGHAMSHIRE,NG17 4JL,19940401,53.1284,-1.26768333333333,E10000024,Nottinghamshire,53.128502,-1.00656
RY5,LINCOLNSHIRE COMMUNITY HEALTH SERVICES NHS TRUST,Y55,Q78,BEECH HOUSE,WITHAM PARK,WATERSIDE SOUTH,LINCOLN,LINCOLNSHIRE,LN5 7JH,20110401,53.1746,-0.58195,E10000019,Lincolnshire,53.111019,-0.23884
RY8,DERBYSHIRE COMMUNITY HEALTH SERVICES NHS FOUNDATION TRUST,Y55,Q76,NEWHOLME HOSPITAL,BASLOW ROAD,,BAKEWELL,DERBYSHIRE,DE45 1AD,20110401,53.1812,-1.679,E10000007,Derbyshire,53.078579,-1.6021
RFS,CHESTERFIELD ROYAL HOSPITAL NHS FOUNDATION TRUST,Y55,Q76,CALOW,,,CHESTERFIELD,DERBYSHIRE,S44 5BL,19930401,53.2,-1.3153875,E10000007,Derbyshire,53.078579,-1.6021
RJR,COUNTESS OF CHESTER HOSPITAL NHS FOUNDATION TRUST,Y54,Q75,THE COUNTESS OF CHESTER HEALTH PARK,,,CHESTER,CHESHIRE,CH2 1UL,19930401,53.2386,-2.85961,E06000050,Cheshire West and Chester,53.163361,-2.70298
RXA,CHESHIRE AND WIRRAL PARTNERSHIP NHS FOUNDATION TRUST,Y54,Q75,TRUST BOARD OFFICES,UPTON LEA RESOURCE CENTRE,THE COUNTESS OF CHESTER HEALTH PARK,CHESTER,CHESHIRE,CH2 1BQ,20020401,53.2386,-2.85961,E06000050,Cheshire West and Chester,53.163361,-2.70298
RT4,WELSH AMBULANCE SERVICES NHS TRUST,W00,Q99,PO BOX 1064,HM STANLEY HOSPITAL,,ST ASAPH,CLWYD,LL17 0WA,19980401,53.2582,-3.41338333333333,W06000005,Flintshire,53.21471,-3.18248
RWD,UNITED LINCOLNSHIRE HOSPITALS NHS TRUST,Y55,Q78,LINCOLN COUNTY HOSPITAL,GREETWELL ROAD,,LINCOLN,LINCOLNSHIRE,LN2 4AX,20000401,53.3167,-0.499268421052631,E10000019,Lincolnshire,53.111019,-0.23884
RJN,EAST CHESHIRE NHS TRUST,Y54,Q75,MACCLESFIELD DISTRICT GEN HOSPITAL,VICTORIA ROAD,,MACCLESFIELD,CHESHIRE,SK10 3BL,19930401,53.3204,-2.14415,E06000049,Cheshire East,53.167931,-2.29299
REN,THE CLATTERBRIDGE CANCER CENTRE NHS FOUNDATION TRUST,Y54,Q75,CLATTERBRIDGE ROAD,,BEBINGTON,WIRRAL,MERSEYSIDE,CH63 4JY,19920401,53.3444,-3.0124,E08000015,Wirral,53.374779,-3.06701
RCU,SHEFFIELD CHILDREN'S NHS FOUNDATION TRUST,Y54,Q72,WESTERN BANK,,,SHEFFIELD,SOUTH YORKSHIRE,S10 2TH,19920401,53.35,-1.55,E08000019,Sheffield,53.40358,-1.54254
RBL,WIRRAL UNIVERSITY TEACHING HOSPITAL NHS FOUNDATION TRUST,Y54,Q75,ARROWE PARK HOSPITAL,ARROWE PARK ROAD,UPTON,WIRRAL,MERSEYSIDE,CH49 5PE,19910401,53.3667,-3.0961,E08000015,Wirral,53.374779,-3.06701
RWJ,STOCKPORT NHS FOUNDATION TRUST,Y54,Q83,STEPPING HILL HOSPITAL,POPLAR GROVE,,STOCKPORT,CHESHIRE,SK2 7JE,20000401,53.3946,-2.1329,E08000007,Stockport,53.391159,-2.12467
RM2,UNIVERSITY HOSPITAL OF SOUTH MANCHESTER NHS FOUNDATION TRUST,Y54,Q83,WYTHENSHAWE HOSPITAL,SOUTHMOOR ROAD,WYTHENSHAWE,MANCHESTER,GREATER MANCHESTER,M23 9LT,19940401,53.3947,-2.279,E08000007,Stockport,53.391159,-2.12467
RBN,ST HELENS AND KNOWSLEY HOSPITAL SERVICES NHS TRUST,Y54,Q75,WHISTON HOSPITAL,WARRINGTON ROAD,,PRESCOT,MERSEYSIDE,L35 5DR,19910401,53.4037,-2.76833333333333,E08000011,Knowsley,53.437881,-2.83297
RTV,5 BOROUGHS PARTNERSHIP NHS FOUNDATION TRUST,Y54,Q75,HOLLINS PARK HOSPITAL,HOLLINS LANE,WINWICK,WARRINGTON,CHESHIRE,WA2 8WA,20020401,53.4044,-2.58103333333333,E08000013,St. Helens,53.458618,-2.7031
RFR,THE ROTHERHAM NHS FOUNDATION TRUST,Y54,Q72,MOORGATE ROAD,,,ROTHERHAM,SOUTH YORKSHIRE,S60 2UD,19930401,53.4044,-1.34648,E08000018,Rotherham,53.395531,-1.28651
RY7,WIRRAL COMMUNITY NHS FOUNDATION TRUST,Y54,Q75,OLD MARKET HOUSE,HAMILTON STREET,,BIRKENHEAD,MERSEYSIDE,CH41 5AL,20110401,53.4096,-3.0163,E08000015,Wirral,53.374779,-3.06701
REP,LIVERPOOL WOMEN'S NHS FOUNDATION TRUST,Y54,Q75,LIVERPOOL WOMENS HOSPITAL,CROWN STREET,,LIVERPOOL,MERSEYSIDE,L8 7SS,19920401,53.4106,-2.9779,E08000012,Liverpool,53.408298,-2.91364
RQ6,ROYAL LIVERPOOL AND BROADGREEN UNIVERSITY HOSPITALS NHS TRUST,Y54,Q75,ROYAL LIVERPOOL UNIVERSITY HOSPITAL,PRESCOT STREET,,LIVERPOOL,MERSEYSIDE,L7 8XP,19950401,53.4106,-2.9779,E08000012,Liverpool,53.408298,-2.91364
RW4,MERSEY CARE NHS FOUNDATION TRUST,Y54,Q75,8 PRINCES PARADE,,,LIVERPOOL,MERSEYSIDE,L3 1DL,20010401,53.4106,-2.9779,E08000012,Liverpool,53.408298,-2.91364
RBQ,LIVERPOOL HEART AND CHEST HOSPITAL NHS FOUNDATION TRUST,Y54,Q75,THOMAS DRIVE,,,LIVERPOOL,MERSEYSIDE,L14 3PE,19910401,53.4162,-2.8965,E08000012,Liverpool,53.408298,-2.91364
RY1,LIVERPOOL COMMUNITY HEALTH NHS TRUST,Y54,Q75,2 ENTERPRISE WAY,,,LIVERPOOL,MERSEYSIDE,L13 1FB,20101101,53.4179,-2.9206,E08000012,Liverpool,53.408298,-2.91364
RBS,ALDER HEY CHILDREN'S NHS FOUNDATION TRUST,Y54,Q75,ALDER HEY HOSPITAL,EATON ROAD,WEST DERBY,LIVERPOOL,MERSEYSIDE,L12 2AP,19910401,53.4328,-2.9096,E08000012,Liverpool,53.408298,-2.91364
RWW,WARRINGTON AND HALTON HOSPITALS NHS FOUNDATION TRUST,Y54,Q75,WARRINGTON HOSPITAL,LOVELY LANE,,WARRINGTON,CHESHIRE,WA5 1QG,20010401,53.4333,-2.6556,E06000007,Warrington,53.391628,-2.56167
RBV,THE CHRISTIE NHS FOUNDATION TRUST,Y54,Q83,550 WILMSLOW ROAD,WITHINGTON,,MANCHESTER,GREATER MANCHESTER,M20 4BX,19910401,53.4346,-2.23295,E08000003,Manchester,53.470089,-2.23359
REM,AINTREE UNIVERSITY HOSPITAL NHS FOUNDATION TRUST,Y54,Q75,UNIVERSITY HOSPITAL AINTREE,FAZAKERLEY HOSPITAL,LOWER LANE,LIVERPOOL,MERSEYSIDE,L9 7AL,19920401,53.4616,-2.9534,E08000012,Liverpool,53.408298,-2.91364
RET,THE WALTON CENTRE NHS FOUNDATION TRUST,Y54,Q75,LOWER LANE,,,LIVERPOOL,MERSEYSIDE,L9 7LJ,19920401,53.4616,-2.9534,E08000012,Liverpool,53.408298,-2.91364
RW3,CENTRAL MANCHESTER UNIVERSITY HOSPITALS NHS FOUNDATION TRUST,Y54,Q83,"TRUST HEADQUARTERS, COBBETT HOUSE",MANCHESTER ROYAL INFIRMARY,OXFORD ROAD,MANCHESTER,GREATER MANCHESTER,M13 9WL,20010401,53.4698,-2.2295,E08000003,Manchester,53.470089,-2.23359
RM3,SALFORD ROYAL NHS FOUNDATION TRUST,Y54,Q83,SALFORD ROYAL,STOTT LANE,,SALFORD,GREATER MANCHESTER,M6 8HD,19940401,53.4926,-2.2991,E08000006,Salford,53.479271,-2.38485
RMP,TAMESIDE HOSPITAL NHS FOUNDATION TRUST,Y54,Q83,TAMESIDE GENERAL HOSPITAL,FOUNTAIN STREET,,ASHTON-UNDER-LYNE,LANCASHIRE,OL6 9RW,19940401,53.4941,-2.0866,E08000008,Tameside,53.478668,-2.077
RT2,PENNINE CARE NHS FOUNDATION TRUST,Y54,Q83,225 OLD STREET,,,ASHTON-UNDER-LYNE,LANCASHIRE,OL6 7SR,20020401,53.4941,-2.0866,E08000007,Stockport,53.391159,-2.12467
RXE,ROTHERHAM DONCASTER AND SOUTH HUMBER NHS FOUNDATION TRUST,Y54,Q72,ST. CATHERINE'S HOUSE,ST. CATHERINE'S HOSPITAL,TICKHILL ROAD,DONCASTER,SOUTH YORKSHIRE,DN4 8QN,20040401,53.497,-1.1821,E08000018,Rotherham,53.395531,-1.28651
RW6,PENNINE ACUTE HOSPITALS NHS TRUST,Y54,Q83,TRUST HEADQUARTERS,NORTH MANCHESTER GENERAL HOSPITAL,"DELAUNAYS ROAD, CRUMPSALL",MANCHESTER,GREATER MANCHESTER,M8 5RB,20020401,53.4986,-2.2385,E08000006,Salford,53.479271,-2.38485
RY2,BRIDGEWATER COMMUNITY HEALTHCARE NHS FOUNDATION TRUST,Y54,Q83,BEVAN HOUSE,17 BEECHAM COURT,,WIGAN,LANCASHIRE,WN3 6PR,20101101,53.5333,-2.6167,E08000013,St. Helens,53.458618,-2.7031
RMC,BOLTON NHS FOUNDATION TRUST,Y54,Q83,THE ROYAL BOLTON HOSPITAL,MINERVA ROAD,FARNWORTH,BOLTON,LANCASHIRE,BL4 0JR,19940401,53.5333,-2.39165,E08000001,Bolton,53.584492,-2.47952
RXV,GREATER MANCHESTER WEST MENTAL HEALTH NHS FOUNDATION TRUST,Y54,Q83,PRESTWICH HOSPITAL,BURY NEW ROAD,PRESTWICH,MANCHESTER,GREATER MANCHESTER,M25 3BL,20030401,53.5333,-2.2833,E08000004,Oldham,53.557678,-2.05274
RP5,DONCASTER AND BASSETLAW HOSPITALS NHS FOUNDATION TRUST,Y54,Q72,DONCASTER ROYAL INFIRMARY,ARMTHORPE ROAD,,DONCASTER,SOUTH YORKSHIRE,DN2 5LT,20010401,53.5334,-1.1027,E08000017,Doncaster,53.52697,-1.10894
RJL,NORTHERN LINCOLNSHIRE AND GOOLE NHS FOUNDATION TRUST,Y54,Q72,DIANA PRINCESS OF WALES HOSPITAL,SCARTHO ROAD,,GRIMSBY,SOUTH HUMBERSIDE,DN33 2BA,20010401,53.5367,-0.0911,E06000013,North Lincolnshire,53.58643,-0.52407
RRF,"WRIGHTINGTON, WIGAN AND LEIGH NHS FOUNDATION TRUST",Y54,Q83,THE ELMS,ROYAL ALBERT EDWARD INFIRMARY,WIGAN LANE,WIGAN,LANCASHIRE,WN1 2NN,20010401,53.553,-2.6226,E08000010,Wigan,53.51445,-2.57247
RFF,BARNSLEY HOSPITAL NHS FOUNDATION TRUST,Y54,Q72,GAWBER ROAD,,,BARNSLEY,SOUTH YORKSHIRE,S75 2EP,19930401,53.5588,-1.53913076923077,E08000016,Barnsley,53.525768,-1.54925
RX7,NORTH WEST AMBULANCE SERVICE NHS TRUST,Y54,Q83,LADYBRIDGE HALL,399 CHORLEY NEW ROAD,,BOLTON,LANCASHIRE,BL1 5DD,20060701,53.5833,-2.4333,E08000001,Bolton,53.584492,-2.47952
RVY,SOUTHPORT AND ORMSKIRK HOSPITAL NHS TRUST,Y54,Q75,TOWN LANE,,,SOUTHPORT,MERSEYSIDE,PR8 6PN,19990401,53.6478,-3.0201,E08000014,Sefton,53.482101,-2.99177
RX8,YORKSHIRE AMBULANCE SERVICE NHS TRUST,Y54,Q72,"SPRINGHILL 2,",WAKEFIELD 41 INDUSTRIAL ESTATE,BRINDLEY WAY,WAKEFIELD,WEST YORKSHIRE,WF2 0XQ,20060701,53.6489,-1.51568,E10000023,North Yorkshire,54.093712,-1.55032
RWY,CALDERDALE AND HUDDERSFIELD NHS FOUNDATION TRUST,Y54,Q72,ROYAL INFIRMARY,ACRE STREET,,HUDDERSFIELD,WEST YORKSHIRE,HD3 3EA,20010401,53.6577,-1.845025,E08000033,Calderdale,53.720482,-1.96182
RXF,MID YORKSHIRE HOSPITALS NHS TRUST,Y54,Q72,ROWAN HOUSE,ABERFORD ROAD,,WAKEFIELD,WEST YORKSHIRE,WF1 4EE,20020401,53.6833,-1.4771,E08000036,Wakefield,53.659222,-1.42092
RXG,SOUTH WEST YORKSHIRE PARTNERSHIP NHS FOUNDATION TRUST,Y54,Q72,TRUST HEADQUARTERS,FIELDHEAD,OUCHTHORPE LANE,WAKEFIELD,WEST YORKSHIRE,WF1 3SP,20020401,53.6833,-1.4771,E08000036,Wakefield,53.659222,-1.42092
RW5,LANCASHIRE CARE NHS FOUNDATION TRUST,Y54,Q84,SCEPTRE POINT,SCEPTRE WAY,BAMBER BRIDGE,PRESTON,LANCASHIRE,PR5 6AW,20020401,53.7349,-2.65641538461538,E10000017,Lancashire,53.86216,-2.46091
RWA,HULL AND EAST YORKSHIRE HOSPITALS NHS TRUST,Y54,Q72,HULL ROYAL INFIRMARY,ANLABY ROAD,,HULL,NORTH HUMBERSIDE,HU3 2JZ,19991001,53.7446,-0.3353,E06000011,East Riding of Yorkshire,53.881119,-0.66195
RV9,HUMBER NHS FOUNDATION TRUST,Y54,Q72,"TRUST HQ, WILLERBY HILL",BEVERLEY ROAD,WILLERBY,HULL,NORTH HUMBERSIDE,HU10 6ED,19991001,53.7512,-0.446166666666667,E06000010,"Kingston upon Hull, City of",53.769199,-0.30382
RXR,EAST LANCASHIRE HOSPITALS NHS TRUST,Y54,Q84,ROYAL BLACKBURN HOSPITAL,HASLINGDEN ROAD,,BLACKBURN,LANCASHIRE,BB2 3HH,20030401,53.7833,-2.52935714285714,E10000017,Lancashire,53.86216,-2.46091
RR8,LEEDS TEACHING HOSPITALS NHS TRUST,Y54,Q72,ST. JAMES'S UNIVERSITY HOSPITAL,BECKETT STREET,,LEEDS,WEST YORKSHIRE,LS9 7TF,19980401,53.7995,-1.5136,E08000035,Leeds,53.822731,-1.50736
RXN,LANCASHIRE TEACHING HOSPITALS NHS FOUNDATION TRUST,Y54,Q84,CHIEF EXECUTIVE'S OFFICE,ROYAL PRESTON HOSPITAL,"SHAROE GREEN LANE, FULWOOD",PRESTON,LANCASHIRE,PR2 9HT,20020801,53.8045,-2.69214,E10000017,Lancashire,53.86216,-2.46091
RGD,LEEDS AND YORK PARTNERSHIP NHS FOUNDATION TRUST,Y54,Q72,TWENTY ONE FIFTY,THORPE PARK,,LEEDS,WEST YORKSHIRE,LS15 8ZB,19930401,53.8109,-1.44241666666667,E08000035,Leeds,53.822731,-1.50736
RXL,BLACKPOOL TEACHING HOSPITALS NHS FOUNDATION TRUST,Y54,Q84,VICTORIA HOSPITAL,WHINNEY HEYS ROAD,,BLACKPOOL,LANCASHIRE,FY3 8NR,20020401,53.8119,-3.0226,E06000009,Blackpool,53.82164,-3.02199
RAE,BRADFORD TEACHING HOSPITALS NHS FOUNDATION TRUST,Y54,Q72,BRADFORD ROYAL INFIRMARY,DUCKWORTH LANE,,BRADFORD,WEST YORKSHIRE,BD9 6RJ,19910401,53.8128,-1.7919,E08000032,Bradford,53.843819,-1.87389
RY6,LEEDS COMMUNITY HEALTHCARE NHS TRUST,Y54,Q72,STOCKDALE HOUSE,8 VICTORIA ROAD,,LEEDS,WEST YORKSHIRE,LS6 1PF,20110401,53.8201,-1.5704,E08000035,Leeds,53.822731,-1.50736
RJX,CALDERSTONES PARTNERSHIP NHS FOUNDATION TRUST,Y54,Q84,MITTON ROAD,,WHALLEY,CLITHEROE,LANCASHIRE,BB7 9PE,19930401,53.9,-2.38126,E10000017,Lancashire,53.86216,-2.46091
RCF,AIREDALE NHS FOUNDATION TRUST,Y54,Q72,AIREDALE GENERAL HOSPITAL,SKIPTON ROAD,STEETON,KEIGHLEY,WEST YORKSHIRE,BD20 6TD,19920401,53.9091,-1.97870833333333,E08000032,Bradford,53.843819,-1.87389
RCB,YORK TEACHING HOSPITAL NHS FOUNDATION TRUST,Y54,Q72,YORK HOSPITAL,WIGGINTON ROAD,,YORK,NORTH YORKSHIRE,YO31 8HE,19920401,53.9576,-1.0827,E06000014,York,53.96582,-1.07375
RCD,HARROGATE AND DISTRICT NHS FOUNDATION TRUST,Y54,Q72,STRAYSIDE WING,HARROGATE DISTRICT HOSPITAL,LANCASTER PARK ROAD,HARROGATE,NORTH YORKSHIRE,HG2 7SX,19920401,53.9908,-1.5373,E10000023,North Yorkshire,54.093712,-1.55032
RTX,UNIVERSITY HOSPITALS OF MORECAMBE BAY NHS FOUNDATION TRUST,Y54,Q74,WESTMORLAND GENERAL HOSPITAL,BURTON ROAD,,KENDAL,CUMBRIA,LA9 7RG,19980401,54.3253,-2.74938,E10000017,Lancashire,53.86216,-2.46091
RX3,"TEES, ESK AND WEAR VALLEYS NHS FOUNDATION TRUST",Y54,Q74,TRUST HEADQUARTERS,WEST PARK HOSPITAL,EDWARD PEASE WAY,DARLINGTON,COUNTY DURHAM,DL2 2TS,20060401,54.5163,-1.624575,E06000005,Darlington,54.535339,-1.56835
RXP,COUNTY DURHAM AND DARLINGTON NHS FOUNDATION TRUST,Y54,Q74,DARLINGTON MEMORIAL HOSPITAL,HOLLYHURST ROAD,,DARLINGTON,COUNTY DURHAM,DL3 6HX,20021001,54.5243,-1.5504,E06000047,County Durham,54.685131,-1.8405
RNL,NORTH CUMBRIA UNIVERSITY HOSPITALS NHS TRUST,Y54,Q74,WEST CUMBERLAND HOSPITAL,HENSINGHAM,,WHITEHAVEN,CUMBRIA,CA28 8JG,20010401,54.5578,-3.5837,E10000006,Cumbria,54.636379,-2.90213
RTR,SOUTH TEES HOSPITALS NHS FOUNDATION TRUST,Y54,Q74,JAMES COOK UNIVERSITY HOSPITAL,MARTON ROAD,,MIDDLESBROUGH,CLEVELAND,TS4 3BW,20020401,54.5762,-1.2348,E06000004,Stockton-on-Tees,54.556911,-1.30664
RVW,NORTH TEES AND HARTLEPOOL NHS FOUNDATION TRUST,Y54,Q74,UNIVERSITY HOSPITAL OF HARTLEPOOL,HOLDFORTH ROAD,,HARTLEPOOL,CLEVELAND,TS24 9AH,19990401,54.6966,-1.2115,E06000001,Hartlepool,54.67614,-1.27018
RNN,CUMBRIA PARTNERSHIP NHS FOUNDATION TRUST,Y54,Q74,CARLETON CLINIC,CUMWHINTON ROAD,,CARLISLE,CUMBRIA,CA1 3SX,20010401,54.8862,-2.92565,E10000006,Cumbria,54.636379,-2.90213
RLN,CITY HOSPITALS SUNDERLAND NHS FOUNDATION TRUST,Y54,Q74,SUNDERLAND ROYAL HOSPITAL,KAYLL ROAD,,SUNDERLAND,TYNE AND WEAR,SR4 7TP,19940401,54.9004,-1.4255,E08000024,Sunderland,54.857189,-1.43344
RR7,GATESHEAD HEALTH NHS FOUNDATION TRUST,Y54,Q74,QUEEN ELIZABETH HOSPITAL,,,GATESHEAD,TYNE AND WEAR,NE9 6SX,19980401,54.9313,-1.5855,E08000037,Gateshead,54.931198,-1.6868
RE9,SOUTH TYNESIDE NHS FOUNDATION TRUST,Y54,Q74,SOUTH TYNESIDE DISTRICT HOSPITAL,HARTON LANE,,SOUTH SHIELDS,TYNE AND WEAR,NE34 0PL,19930401,54.9667,-1.4,E08000023,South Tyneside,54.969879,-1.44679
RX6,NORTH EAST AMBULANCE SERVICE NHS FOUNDATION TRUST,Y54,Q74,BENICIA HOUSE,GOLDCREST WAY,NEWBURN RIVERSIDE,NEWCASTLE UPON TYNE,TYNE AND WEAR,NE15 8NY,20060701,54.9969,-1.78854285714286,E08000037,Gateshead,54.931198,-1.6868
RX4,"NORTHUMBERLAND, TYNE AND WEAR NHS FOUNDATION TRUST",Y54,Q74,ST. NICHOLAS HOSPITAL,JUBILEE ROAD,GOSFORTH,NEWCASTLE UPON TYNE,TYNE AND WEAR,NE3 3XT,20060401,55,-1.6339,E06000057,Northumberland,55.300369,-2.07523
RTF,NORTHUMBRIA HEALTHCARE NHS FOUNDATION TRUST,Y54,Q74,RAKE LANE,,,NORTH SHIELDS,TYNE AND WEAR,NE29 8NH,19980401,55.0165,-1.4493,E06000057,Northumberland,55.300369,-2.07523
RTD,THE NEWCASTLE UPON TYNE HOSPITALS NHS FOUNDATION TRUST,Y54,Q74,FREEMAN HOSPITAL,FREEMAN ROAD,HIGH HEATON,NEWCASTLE-UPON-TYNE,TYNE AND WEAR,NE7 7DN,19980401,55.0178,-1.5694,E08000021,Newcastle upon Tyne,55.021011,-1.65297
RHQ,SHEFFIELD TEACHING HOSPITALS NHS FOUNDATION TRUST,Y54,Q72,NORTHERN GENERAL HOSPITAL,HERRIES ROAD,,SHEFFIELD,SOUTH YORKSHIRE,S5 7AU,20010401,53.40975,-1.45604,E08000019,Sheffield,53.40358,-1.54254
